[{"OBJECT_NAME":"ONEWEB-0372","OBJECT_ID":"2021-090V","EPOCH":"2026-04-08T23:53:21.100704","MEAN_MOTION":13.20773422,"ECCENTRICITY":0.0001842,"INCLINATION":87.9142,"RA_OF_ASC_NODE":288.2544,"ARG_OF_PERICENTER":91.0947,"MEAN_ANOMALY":269.0397,"EPHEMERIS_TYPE":0,"CLASSIFICATION_TYPE":"U","NORAD_CAT_ID":49298,"ELEMENT_SET_NO":999,"REV_AT_EPOCH":22070,"BSTAR":7.1454e-06,"MEAN_MOTION_DOT":1.6e-07,"MEAN_MOTION_DDOT":0.0},{"OBJECT_NAME":"ONEWEB-0373","OBJECT_ID":"2021-090W","EPOCH":"2026-04-08T22:43:04.884384","MEAN_MOTION":13.20773173,"ECCENTRICITY":0.0001633,"INCLINATION":87.9136,"RA_OF_ASC_NODE":288.2673,"ARG_OF_PERICENTER":91.5643,"MEAN_ANOMALY":268.5677,"EPHEMERIS_TYPE":0,"CLASSIFICATION_TYPE":"U","NORAD_CAT_ID":49299,"ELEMENT_SET_NO":999,"REV_AT_EPOCH":22188,"BSTAR":0.00015046000000000002,"MEAN_MOTION_DOT":7.4e-07,"MEAN_MOTION_DDOT":0.0},{"OBJECT_NAME":"ONEWEB-0374","OBJECT_ID":"2021-090X","EPOCH":"2026-04-09T00:05:26.684448","MEAN_MOTION":13.14502489,"ECCENTRICITY":0.0001448,"INCLINATION":87.8937,"RA_OF_ASC_NODE":303.5064,"ARG_OF_PERICENTER":109.6151,"MEAN_ANOMALY":250.5135,"EPHEMERIS_TYPE":0,"CLASSIFICATION_TYPE":"U","NORAD_CAT_ID":49300,"ELEMENT_SET_NO":999,"REV_AT_EPOCH":21847,"BSTAR":0.00049822,"MEAN_MOTION_DOT":1.98e-06,"MEAN_MOTION_DDOT":0.0},{"OBJECT_NAME":"ONEWEB-0375","OBJECT_ID":"2021-090Y","EPOCH":"2026-04-09T00:14:00.401568","MEAN_MOTION":13.20773052,"ECCENTRICITY":0.0001356,"INCLINATION":87.9139,"RA_OF_ASC_NODE":288.2442,"ARG_OF_PERICENTER":106.5291,"MEAN_ANOMALY":253.5992,"EPHEMERIS_TYPE":0,"CLASSIFICATION_TYPE":"U","NORAD_CAT_ID":49301,"ELEMENT_SET_NO":999,"REV_AT_EPOCH":22139,"BSTAR":0.00024324,"MEAN_MOTION_DOT":1.12e-06,"MEAN_MOTION_DDOT":0.0},{"OBJECT_NAME":"ONEWEB-0376","OBJECT_ID":"2021-090Z","EPOCH":"2026-04-09T01:02:27.122208","MEAN_MOTION":13.19724463,"ECCENTRICITY":0.0001939,"INCLINATION":87.9188,"RA_OF_ASC_NODE":318.7489,"ARG_OF_PERICENTER":84.3305,"MEAN_ANOMALY":275.8049,"EPHEMERIS_TYPE":0,"CLASSIFICATION_TYPE":"U","NORAD_CAT_ID":49302,"ELEMENT_SET_NO":999,"REV_AT_EPOCH":21733,"BSTAR":-2.9704000000000006e-05,"MEAN_MOTION_DOT":1e-08,"MEAN_MOTION_DDOT":0.0},{"OBJECT_NAME":"ONEWEB-0377","OBJECT_ID":"2021-090AA","EPOCH":"2026-04-08T23:53:44.644704","MEAN_MOTION":13.20774442,"ECCENTRICITY":0.0001577,"INCLINATION":87.9139,"RA_OF_ASC_NODE":288.2486,"ARG_OF_PERICENTER":87.1278,"MEAN_ANOMALY":273.0036,"EPHEMERIS_TYPE":0,"CLASSIFICATION_TYPE":"U","NORAD_CAT_ID":49303,"ELEMENT_SET_NO":999,"REV_AT_EPOCH":22138,"BSTAR":-0.0024043000000000003,"MEAN_MOTION_DOT":-9.65e-06,"MEAN_MOTION_DDOT":0.0},{"OBJECT_NAME":"ONEWEB-0378","OBJECT_ID":"2021-090AB","EPOCH":"2026-04-08T22:36:28.234080","MEAN_MOTION":13.20772433,"ECCENTRICITY":0.0001672,"INCLINATION":87.9137,"RA_OF_ASC_NODE":288.2684,"ARG_OF_PERICENTER":95.2969,"MEAN_ANOMALY":264.8355,"EPHEMERIS_TYPE":0,"CLASSIFICATION_TYPE":"U","NORAD_CAT_ID":49304,"ELEMENT_SET_NO":999,"REV_AT_EPOCH":22064,"BSTAR":0.00029959999999999996,"MEAN_MOTION_DOT":1.35e-06,"MEAN_MOTION_DDOT":0.0},{"OBJECT_NAME":"ONEWEB-0379","OBJECT_ID":"2021-090AC","EPOCH":"2026-04-08T20:19:22.008000","MEAN_MOTION":13.14501779,"ECCENTRICITY":0.0001668,"INCLINATION":87.8938,"RA_OF_ASC_NODE":303.5486,"ARG_OF_PERICENTER":92.6973,"MEAN_ANOMALY":267.4348,"EPHEMERIS_TYPE":0,"CLASSIFICATION_TYPE":"U","NORAD_CAT_ID":49305,"ELEMENT_SET_NO":999,"REV_AT_EPOCH":21845,"BSTAR":0.00018327,"MEAN_MOTION_DOT":8.1e-07,"MEAN_MOTION_DDOT":0.0},{"OBJECT_NAME":"ONEWEB-0380","OBJECT_ID":"2021-090AD","EPOCH":"2026-04-09T00:57:53.165088","MEAN_MOTION":13.19726613,"ECCENTRICITY":0.0001493,"INCLINATION":87.9172,"RA_OF_ASC_NODE":318.7614,"ARG_OF_PERICENTER":84.7171,"MEAN_ANOMALY":275.4132,"EPHEMERIS_TYPE":0,"CLASSIFICATION_TYPE":"U","NORAD_CAT_ID":49306,"ELEMENT_SET_NO":999,"REV_AT_EPOCH":21730,"BSTAR":5.951e-05,"MEAN_MOTION_DOT":3.7e-07,"MEAN_MOTION_DDOT":0.0},{"OBJECT_NAME":"ONEWEB-0381","OBJECT_ID":"2021-090AE","EPOCH":"2026-04-08T23:49:00.964992","MEAN_MOTION":13.20772098,"ECCENTRICITY":0.0001572,"INCLINATION":87.9142,"RA_OF_ASC_NODE":288.2536,"ARG_OF_PERICENTER":98.7061,"MEAN_ANOMALY":261.425,"EPHEMERIS_TYPE":0,"CLASSIFICATION_TYPE":"U","NORAD_CAT_ID":49307,"ELEMENT_SET_NO":999,"REV_AT_EPOCH":22069,"BSTAR":-2.0308000000000003e-05,"MEAN_MOTION_DOT":5e-08,"MEAN_MOTION_DDOT":0.0},{"OBJECT_NAME":"ONEWEB-0382","OBJECT_ID":"2021-090AF","EPOCH":"2026-04-08T23:30:49.986144","MEAN_MOTION":13.20771858,"ECCENTRICITY":0.000166,"INCLINATION":87.9138,"RA_OF_ASC_NODE":288.252,"ARG_OF_PERICENTER":101.9674,"MEAN_ANOMALY":258.1646,"EPHEMERIS_TYPE":0,"CLASSIFICATION_TYPE":"U","NORAD_CAT_ID":49308,"ELEMENT_SET_NO":999,"REV_AT_EPOCH":22068,"BSTAR":-3.6787e-05,"MEAN_MOTION_DOT":-2e-08,"MEAN_MOTION_DDOT":0.0},{"OBJECT_NAME":"ONEWEB-0383","OBJECT_ID":"2021-090AG","EPOCH":"2026-04-08T23:49:26.491008","MEAN_MOTION":13.14501418,"ECCENTRICITY":0.0001751,"INCLINATION":87.8943,"RA_OF_ASC_NODE":303.5057,"ARG_OF_PERICENTER":94.0212,"MEAN_ANOMALY":266.1118,"EPHEMERIS_TYPE":0,"CLASSIFICATION_TYPE":"U","NORAD_CAT_ID":49309,"ELEMENT_SET_NO":999,"REV_AT_EPOCH":21850,"BSTAR":-0.0001304,"MEAN_MOTION_DOT":-3.6e-07,"MEAN_MOTION_DDOT":0.0},{"OBJECT_NAME":"ONEWEB-0384","OBJECT_ID":"2021-090AH","EPOCH":"2026-04-07T21:50:13.288992","MEAN_MOTION":13.20615962,"ECCENTRICITY":0.0003189,"INCLINATION":87.9122,"RA_OF_ASC_NODE":288.5056,"ARG_OF_PERICENTER":89.7115,"MEAN_ANOMALY":270.4384,"EPHEMERIS_TYPE":0,"CLASSIFICATION_TYPE":"U","NORAD_CAT_ID":49310,"ELEMENT_SET_NO":999,"REV_AT_EPOCH":22055,"BSTAR":-0.062192000000000004,"MEAN_MOTION_DOT":-0.00025146,"MEAN_MOTION_DDOT":0.0},{"OBJECT_NAME":"ONEWEB-0385","OBJECT_ID":"2021-090AJ","EPOCH":"2026-04-08T23:19:27.272352","MEAN_MOTION":13.20773465,"ECCENTRICITY":0.0001639,"INCLINATION":87.914,"RA_OF_ASC_NODE":288.2581,"ARG_OF_PERICENTER":97.6427,"MEAN_ANOMALY":262.4892,"EPHEMERIS_TYPE":0,"CLASSIFICATION_TYPE":"U","NORAD_CAT_ID":49311,"ELEMENT_SET_NO":999,"REV_AT_EPOCH":22066,"BSTAR":0.00011622000000000001,"MEAN_MOTION_DOT":6e-07,"MEAN_MOTION_DDOT":0.0},{"OBJECT_NAME":"ONEWEB-0386","OBJECT_ID":"2021-090AK","EPOCH":"2026-04-08T23:44:27.421728","MEAN_MOTION":13.20773153,"ECCENTRICITY":0.0001734,"INCLINATION":87.915,"RA_OF_ASC_NODE":288.241,"ARG_OF_PERICENTER":100.2559,"MEAN_ANOMALY":259.877,"EPHEMERIS_TYPE":0,"CLASSIFICATION_TYPE":"U","NORAD_CAT_ID":49312,"ELEMENT_SET_NO":999,"REV_AT_EPOCH":22068,"BSTAR":4.3236000000000004e-05,"MEAN_MOTION_DOT":3.1e-07,"MEAN_MOTION_DDOT":0.0},{"OBJECT_NAME":"ONEWEB-0387","OBJECT_ID":"2021-090AL","EPOCH":"2026-04-08T23:21:42.707808","MEAN_MOTION":13.20781331,"ECCENTRICITY":0.0001391,"INCLINATION":87.9133,"RA_OF_ASC_NODE":288.277,"ARG_OF_PERICENTER":93.3881,"MEAN_ANOMALY":266.7411,"EPHEMERIS_TYPE":0,"CLASSIFICATION_TYPE":"U","NORAD_CAT_ID":49313,"ELEMENT_SET_NO":999,"REV_AT_EPOCH":22068,"BSTAR":-0.0021404,"MEAN_MOTION_DOT":-8.57e-06,"MEAN_MOTION_DDOT":0.0}]