ONEWEB-0372             
1 49298U 21090V   26098.99538311  .00000016  00000+0  71454-5 0  9990
2 49298  87.9142 288.2544 0001842  91.0947 269.0397 13.20773422220701
ONEWEB-0373             
1 49299U 21090W   26098.94658431  .00000074  00000+0  15046-3 0  9999
2 49299  87.9136 288.2673 0001633  91.5643 268.5677 13.20773173221882
ONEWEB-0374             
1 49300U 21090X   26099.00378107  .00000198  00000+0  49822-3 0  9995
2 49300  87.8937 303.5064 0001448 109.6151 250.5135 13.14502489218471
ONEWEB-0375             
1 49301U 21090Y   26099.00972687  .00000112  00000+0  24324-3 0  9995
2 49301  87.9139 288.2442 0001356 106.5291 253.5992 13.20773052221397
ONEWEB-0376             
1 49302U 21090Z   26099.04336947  .00000001  00000+0 -29704-4 0  9999
2 49302  87.9188 318.7489 0001939  84.3305 275.8049 13.19724463217337
ONEWEB-0377             
1 49303U 21090AA  26098.99565561 -.00000965  00000+0 -24043-2 0  9998
2 49303  87.9139 288.2486 0001577  87.1278 273.0036 13.20774442221380
ONEWEB-0378             
1 49304U 21090AB  26098.94199345  .00000135  00000+0  29960-3 0  9998
2 49304  87.9137 288.2684 0001672  95.2969 264.8355 13.20772433220640
ONEWEB-0379             
1 49305U 21090AC  26098.84678250  .00000081  00000+0  18327-3 0  9990
2 49305  87.8938 303.5486 0001668  92.6973 267.4348 13.14501779218454
ONEWEB-0380             
1 49306U 21090AD  26099.04019867  .00000037  00000+0  59510-4 0  9998
2 49306  87.9172 318.7614 0001493  84.7171 275.4132 13.19726613217309
ONEWEB-0381             
1 49307U 21090AE  26098.99237228  .00000005  00000+0 -20308-4 0  9994
2 49307  87.9142 288.2536 0001572  98.7061 261.4250 13.20772098220694
ONEWEB-0382             
1 49308U 21090AF  26098.97974521 -.00000002  00000+0 -36787-4 0  9993
2 49308  87.9138 288.2520 0001660 101.9674 258.1646 13.20771858220682
ONEWEB-0383             
1 49309U 21090AG  26098.99266772 -.00000036  00000+0 -13040-3 0  9991
2 49309  87.8943 303.5057 0001751  94.0212 266.1118 13.14501418218500
ONEWEB-0384             
1 49310U 21090AH  26097.90987603 -.00025146  00000+0 -62192-1 0  9995
2 49310  87.9122 288.5056 0003189  89.7115 270.4384 13.20615962220551
ONEWEB-0385             
1 49311U 21090AJ  26098.97184343  .00000060  00000+0  11622-3 0  9994
2 49311  87.9140 288.2581 0001639  97.6427 262.4892 13.20773465220664
ONEWEB-0386             
1 49312U 21090AK  26098.98920627  .00000031  00000+0  43236-4 0  9994
2 49312  87.9150 288.2410 0001734 100.2559 259.8770 13.20773153220681
ONEWEB-0387             
1 49313U 21090AL  26098.97341097 -.00000857  00000+0 -21404-2 0  9991
2 49313  87.9133 288.2770 0001391  93.3881 266.7411 13.20781331220687
